{
    "links": {
        "self": "http://www.neowsapp.com/rest/v1/neo/3759252?api_key=iIulBulltgU6a56xZRHN4H3l9WmuAYTsLGpBGhQ2"
    },
    "id": "3759252",
    "neo_reference_id": "3759252",
    "name": "(2016 RE18)",
    "designation": "2016 RE18",
    "nasa_jpl_url": "http://ssd.jpl.nasa.gov/sbdb.cgi?sstr=3759252",
    "absolute_magnitude_h": 23.7,
    "estimated_diameter": {
        "kilometers": {
            "estimated_diameter_min": 0.0483676488,
            "estimated_diameter_max": 0.1081533507
        },
        "meters": {
            "estimated_diameter_min": 48.3676488219,
            "estimated_diameter_max": 108.1533506775
        },
        "miles": {
            "estimated_diameter_min": 0.0300542543,
            "estimated_diameter_max": 0.0672033557
        },
        "feet": {
            "estimated_diameter_min": 158.6865169607,
            "estimated_diameter_max": 354.8338390368
        }
    },
    "is_potentially_hazardous_asteroid": false,
    "close_approach_data": [
        {
            "close_approach_date": "2016-08-28",
            "close_approach_date_full": "2016-Aug-28 14:46",
            "epoch_date_close_approach": 1472395560000,
            "relative_velocity": {
                "kilometers_per_second": "7.5283866394",
                "kilometers_per_hour": "27102.1919019697",
                "miles_per_hour": "16840.2480737545"
            },
            "miss_distance": {
                "astronomical": "0.0662901136",
                "lunar": "25.7868541904",
                "kilometers": "9916859.796618032",
                "miles": "6162050.9395195616"
            },
            "orbiting_body": "Earth"
        },
        {
            "close_approach_date": "2024-07-30",
            "close_approach_date_full": "2024-Jul-30 16:50",
            "epoch_date_close_approach": 1722358200000,
            "relative_velocity": {
                "kilometers_per_second": "17.4374906495",
                "kilometers_per_hour": "62774.9663381759",
                "miles_per_hour": "39005.9228338516"
            },
            "miss_distance": {
                "astronomical": "0.3794987085",
                "lunar": "147.6249976065",
                "kilometers": "56772198.459350895",
                "miles": "35276608.324576551"
            },
            "orbiting_body": "Earth"
        }
    ],
    "orbital_data": {
        "orbit_id": "5",
        "orbit_determination_date": "2017-04-06 08:24:05",
        "first_observation_date": "2016-09-06",
        "last_observation_date": "2016-11-21",
        "data_arc_in_days": 76,
        "observations_used": 34,
        "orbit_uncertainty": "7",
        "minimum_orbit_intersection": ".0447317",
        "jupiter_tisserand_invariant": "3.792",
        "epoch_osculation": "2459000.5",
        "eccentricity": ".4627850793358158",
        "semi_major_axis": "1.91427761305116",
        "inclination": "2.808181682942389",
        "ascending_node_longitude": "307.3505841952444",
        "orbital_period": "967.3993861929628",
        "perihelion_distance": "1.028378496024503",
        "perihelion_argument": "54.17856884581563",
        "aphelion_distance": "2.800176730077817",
        "perihelion_time": "2458617.618997375171",
        "mean_anomaly": "142.482167047235",
        "mean_motion": ".3721317225729482",
        "equinox": "J2000",
        "orbit_class": {
            "orbit_class_type": "AMO",
            "orbit_class_description": "Near-Earth asteroid orbits similar to that of 1221 Amor",
            "orbit_class_range": "1.017 AU < q (perihelion) < 1.3 AU"
        }
    },
    "is_sentry_object": false
}